[{"OBJECT_NAME":"STARLINK-34948","OBJECT_ID":"2025-175T","EPOCH":"2026-03-09T15:07:20.482752","MEAN_MOTION":15.05646323,"ECCENTRICITY":0.0003,"INCLINATION":97.6018,"RA_OF_ASC_NODE":302.6288,"ARG_OF_PERICENTER":82.1533,"MEAN_ANOMALY":278.0034,"EPHEMERIS_TYPE":0,"CLASSIFICATION_TYPE":"U","NORAD_CAT_ID":65191,"ELEMENT_SET_NO":999,"REV_AT_EPOCH":3263,"BSTAR":0.00023346,"MEAN_MOTION_DOT":3.309e-5,"MEAN_MOTION_DDOT":0},{"OBJECT_NAME":"FENGYUN 1C DEB","OBJECT_ID":"1999-025EMJ","EPOCH":"2026-03-09T03:39:09.279936","MEAN_MOTION":15.01174269,"ECCENTRICITY":0.00472088,"INCLINATION":98.7318,"RA_OF_ASC_NODE":38.98,"ARG_OF_PERICENTER":180.721,"MEAN_ANOMALY":242.109,"EPHEMERIS_TYPE":0,"CLASSIFICATION_TYPE":"U","NORAD_CAT_ID":37717,"ELEMENT_SET_NO":999,"REV_AT_EPOCH":90691,"BSTAR":0.0034859906,"MEAN_MOTION_DOT":0.00045969,"MEAN_MOTION_DDOT":0}]
